{"type": "FeatureCollection", "features": [ {"type": "Feature", "properties": {"norad_id": 30726, "name": "FENGYUN 1C DEB", "group": "fengyun-1c-debris", "lat": 44.19114326518136, "lon": -21.753998113431003, "alt_km": 914.4735332349182, "timestamp": "2025-12-11T15:53:39.820821+00:00", "meta": {"OBJECT_NAME": "FENGYUN 1C DEB", "OBJECT_ID": "1999-025ASL", "EPOCH": "2025-12-10T11:26:53.872224", "MEAN_MOTION": 14.09285511, "ECCENTRICITY": 0.00782324, "INCLINATION": 99.2681, "RA_OF_ASC_NODE": 346.1609, "ARG_OF_PERICENTER": 232.5326, "MEAN_ANOMALY": 282.3919, "EPHEMERIS_TYPE": 0, "CLASSIFICATION_TYPE": "U", "NORAD_CAT_ID": 30726, "ELEMENT_SET_NO": 999, "REV_AT_EPOCH": 95951, "BSTAR": 0.0017739951, "MEAN_MOTION_DOT": 3.131e-05, "MEAN_MOTION_DDOT": 0}, "tle": {"line1": "1 30726U 99025ASL 25344.47701241  .00003131  00000+0  17740-2 0  9995", "line2": "2 30726  99.2681 346.1609 0078232 232.5326 282.3919 14.09285511959518"}}, "geometry": {"type": "Point", "coordinates": [-21.753998113431003, 44.19114326518136]}}, {"type": "Feature", "properties": {"norad_id": 30728, "name": "FENGYUN 1C DEB", "group": "fengyun-1c-debris", "lat": -75.78781288967994, "lon": 136.04176916027788, "alt_km": 892.0803720922113, "timestamp": "2025-12-11T15:53:39.820831+00:00", "meta": {"OBJECT_NAME": "FENGYUN 1C DEB", "OBJECT_ID": "1999-025ASN", "EPOCH": "2025-12-10T23:30:23.221152", "MEAN_MOTION": 14.23473088, "ECCENTRICITY": 0.0099554, "INCLINATION": 98.5295, "RA_OF_ASC_NODE": 351.7182, "ARG_OF_PERICENTER": 87.0523, "MEAN_ANOMALY": 274.2044, "EPHEMERIS_TYPE": 0, "CLASSIFICATION_TYPE": "U", "NORAD_CAT_ID": 30728, "ELEMENT_SET_NO": 999, "REV_AT_EPOCH": 97664, "BSTAR": 0.00010596, "MEAN_MOTION_DOT": 2.12e-06, "MEAN_MOTION_DDOT": 0}, "tle": {"line1": "1 30728U 99025ASN 25344.97943543  .00000212  00000+0  10596-3 0  9995", "line2": "2 30728  98.5295 351.7182 0099554  87.0523 274.2044 14.23473088976649"}}, "geometry": {"type": "Point", "coordinates": [136.04176916027788, -75.78781288967994]}}, {"type": "Feature", "properties": {"norad_id": 30730, "name": "FENGYUN 1C DEB", "group": "fengyun-1c-debris", "lat": -9.541959869451139, "lon": -156.6582711863925, "alt_km": 852.097696257888, "timestamp": "2025-12-11T15:53:39.820840+00:00", "meta": {"OBJECT_NAME": "FENGYUN 1C DEB", "OBJECT_ID": "1999-025ASQ", "EPOCH": "2025-12-11T01:38:11.611680", "MEAN_MOTION": 14.25462634, "ECCENTRICITY": 0.00784856, "INCLINATION": 98.6186, "RA_OF_ASC_NODE": 24.2188, "ARG_OF_PERICENTER": 54.1915, "MEAN_ANOMALY": 327.8528, "EPHEMERIS_TYPE": 0, "CLASSIFICATION_TYPE": "U", "NORAD_CAT_ID": 30730, "ELEMENT_SET_NO": 999, "REV_AT_EPOCH": 96982, "BSTAR": 0.0013958202, "MEAN_MOTION_DOT": 3.363e-05, "MEAN_MOTION_DDOT": 0}, "tle": {"line1": "1 30730U 99025ASQ 25345.06818995  .00003363  00000+0  13958-2 0  9995", "line2": "2 30730  98.6186  24.2188 0078485  54.1915 327.8528 14.25462634969821"}}, "geometry": {"type": "Point", "coordinates": [-156.6582711863925, -9.541959869451139]}}, {"type": "Feature", "properties": {"norad_id": 30731, "name": "FENGYUN 1C DEB", "group": "fengyun-1c-debris", "lat": -64.94549205641722, "lon": 84.52051309484811, "alt_km": 752.4755249002374, "timestamp": "2025-12-11T15:53:39.820850+00:00", "meta": {"OBJECT_NAME": "FENGYUN 1C DEB", "OBJECT_ID": "1999-025ASR", "EPOCH": "2025-12-11T04:40:18.851232", "MEAN_MOTION": 14.41729552, "ECCENTRICITY": 0.00147576, "INCLINATION": 98.859, "RA_OF_ASC_NODE": 64.546, "ARG_OF_PERICENTER": 250.1087, "MEAN_ANOMALY": 137.764, "EPHEMERIS_TYPE": 0, "CLASSIFICATION_TYPE": "U", "NORAD_CAT_ID": 30731, "ELEMENT_SET_NO": 999, "REV_AT_EPOCH": 97334, "BSTAR": 0.0034442043, "MEAN_MOTION_DOT": 0.00011221, "MEAN_MOTION_DDOT": 0}, "tle": {"line1": "1 30731U 99025ASR 25345.19466263  .00011221  00000+0  34442-2 0  9990", "line2": "2 30731  98.8590  64.5460 0014757 250.1087 137.7640 14.41729552973341"}}, "geometry": {"type": "Point", "coordinates": [84.52051309484811, -64.94549205641722]}}, {"type": "Feature", "properties": {"norad_id": 30732, "name": "FENGYUN 1C DEB", "group": "fengyun-1c-debris", "lat": -8.51501449527011, "lon": -175.52061319711297, "alt_km": 801.7093576204479, "timestamp": "2025-12-11T15:53:39.820860+00:00", "meta": {"OBJECT_NAME": "FENGYUN 1C DEB", "OBJECT_ID": "1999-025ASS", "EPOCH": "2025-12-10T08:16:59.974176", "MEAN_MOTION": 14.03896933, "ECCENTRICITY": 0.01237997, "INCLINATION": 98.8046, "RA_OF_ASC_NODE": 4.5329, "ARG_OF_PERICENTER": 215.7664, "MEAN_ANOMALY": 160.1713, "EPHEMERIS_TYPE": 0, "CLASSIFICATION_TYPE": "U", "NORAD_CAT_ID": 30732, "ELEMENT_SET_NO": 999, "REV_AT_EPOCH": 96158, "BSTAR": 0.0006939148, "MEAN_MOTION_DOT": 1.129e-05, "MEAN_MOTION_DDOT": 0}, "tle": {"line1": "1 30732U 99025ASS 25344.34513859  .00001129  00000+0  69391-3 0  9999", "line2": "2 30732  98.8046   4.5329 0123799 215.7664 160.1713 14.03896933961581"}}, "geometry": {"type": "Point", "coordinates": [-175.52061319711297, -8.51501449527011]}}, {"type": "Feature", "properties": {"norad_id": 30735, "name": "FENGYUN 1C DEB", "group": "fengyun-1c-debris", "lat": -17.958993849092053, "lon": 59.594216877886765, "alt_km": 819.6436389412011, "timestamp": "2025-12-11T15:53:39.820870+00:00", "meta": {"OBJECT_NAME": "FENGYUN 1C DEB", "OBJECT_ID": "1999-025ASV", "EPOCH": "2025-12-11T04:18:14.020416", "MEAN_MOTION": 14.23946089, "ECCENTRICITY": 0.00594057, "INCLINATION": 98.7626, "RA_OF_ASC_NODE": 56.2474, "ARG_OF_PERICENTER": 249.3841, "MEAN_ANOMALY": 137.6294, "EPHEMERIS_TYPE": 0, "CLASSIFICATION_TYPE": "U", "NORAD_CAT_ID": 30735, "ELEMENT_SET_NO": 999, "REV_AT_EPOCH": 96726, "BSTAR": 0.0024964568, "MEAN_MOTION_DOT": 5.79e-05, "MEAN_MOTION_DDOT": 0}, "tle": {"line1": "1 30735U 99025ASV 25345.17932894  .00005790  00000+0  24965-2 0  9993", "line2": "2 30735  98.7626  56.2474 0059405 249.3841 137.6294 14.23946089967268"}}, "geometry": {"type": "Point", "coordinates": [59.594216877886765, -17.958993849092053]}}, {"type": "Feature", "properties": {"norad_id": 30736, "name": "FENGYUN 1C DEB", "group": "fengyun-1c-debris", "lat": 62.300063826106296, "lon": -139.17173369575096, "alt_km": 913.0952419958348, "timestamp": "2025-12-11T15:53:39.820880+00:00", "meta": {"OBJECT_NAME": "FENGYUN 1C DEB", "OBJECT_ID": "1999-025ASW", "EPOCH": "2025-12-06T16:01:27.387840", "MEAN_MOTION": 13.61611053, "ECCENTRICITY": 0.02800041, "INCLINATION": 98.7811, "RA_OF_ASC_NODE": 19.2067, "ARG_OF_PERICENTER": 70.187, "MEAN_ANOMALY": 53.7062, "EPHEMERIS_TYPE": 0, "CLASSIFICATION_TYPE": "U", "NORAD_CAT_ID": 30736, "ELEMENT_SET_NO": 999, "REV_AT_EPOCH": 92770, "BSTAR": 0.0030781788, "MEAN_MOTION_DOT": 3.026e-05, "MEAN_MOTION_DDOT": 0}, "tle": {"line1": "1 30736U 99025ASW 25340.66767810  .00003026  00000+0  30782-2 0  9991", "line2": "2 30736  98.7811  19.2067 0280004  70.1870  53.7062 13.61611053927702"}}, "geometry": {"type": "Point", "coordinates": [-139.17173369575096, 62.300063826106296]}}, {"type": "Feature", "properties": {"norad_id": 30737, "name": "FENGYUN 1C DEB", "group": "fengyun-1c-debris", "lat": -69.62098093643083, "lon": -8.007368246458988, "alt_km": 854.1074608865711, "timestamp": "2025-12-11T15:53:39.820890+00:00", "meta": {"OBJECT_NAME": "FENGYUN 1C DEB", "OBJECT_ID": "1999-025ASX", "EPOCH": "2025-12-10T21:44:52.089216", "MEAN_MOTION": 14.18250112, "ECCENTRICITY": 0.0024046, "INCLINATION": 98.5791, "RA_OF_ASC_NODE": 327.2847, "ARG_OF_PERICENTER": 136.7231, "MEAN_ANOMALY": 253.4671, "EPHEMERIS_TYPE": 0, "CLASSIFICATION_TYPE": "U", "NORAD_CAT_ID": 30737, "ELEMENT_SET_NO": 999, "REV_AT_EPOCH": 97007, "BSTAR": 0.00044672, "MEAN_MOTION_DOT": 8.8e-06, "MEAN_MOTION_DDOT": 0}, "tle": {"line1": "1 30737U 99025ASX 25344.90615844  .00000880  00000+0  44672-3 0  9991", "line2": "2 30737  98.5791 327.2847 0024046 136.7231 253.4671 14.18250112970079"}}, "geometry": {"type": "Point", "coordinates": [-8.007368246458988, -69.62098093643083]}}, {"type": "Feature", "properties": {"norad_id": 30739, "name": "FENGYUN 1C DEB", "group": "fengyun-1c-debris", "lat": 57.20191967024625, "lon": -40.9085549717838, "alt_km": 846.3570654984378, "timestamp": "2025-12-11T15:53:39.820900+00:00", "meta": {"OBJECT_NAME": "FENGYUN 1C DEB", "OBJECT_ID": "1999-025ASZ", "EPOCH": "2025-12-11T05:32:24.690912", "MEAN_MOTION": 14.14948527, "ECCENTRICITY": 0.01005302, "INCLINATION": 98.6917, "RA_OF_ASC_NODE": 332.4032, "ARG_OF_PERICENTER": 321.5259, "MEAN_ANOMALY": 59.2726, "EPHEMERIS_TYPE": 0, "CLASSIFICATION_TYPE": "U", "NORAD_CAT_ID": 30739, "ELEMENT_SET_NO": 999, "REV_AT_EPOCH": 96842, "BSTAR": 0.00068038699, "MEAN_MOTION_DOT": 1.338e-05, "MEAN_MOTION_DDOT": 0}, "tle": {"line1": "1 30739U 99025ASZ 25345.23084133  .00001338  00000+0  68039-3 0  9993", "line2": "2 30739  98.6917 332.4032 0100530 321.5259  59.2726 14.14948527968422"}}, "geometry": {"type": "Point", "coordinates": [-40.9085549717838, 57.20191967024625]}}, {"type": "Feature", "properties": {"norad_id": 30740, "name": "FENGYUN 1C DEB", "group": "fengyun-1c-debris", "lat": -67.10246081698317, "lon": 111.95617779752233, "alt_km": 746.9192344788253, "timestamp": "2025-12-11T15:53:39.820911+00:00", "meta": {"OBJECT_NAME": "FENGYUN 1C DEB", "OBJECT_ID": "1999-025ATA", "EPOCH": "2025-12-11T06:17:18.566880", "MEAN_MOTION": 14.51876132, "ECCENTRICITY": 0.00321542, "INCLINATION": 98.6893, "RA_OF_ASC_NODE": 90.3143, "ARG_OF_PERICENTER": 140.0466, "MEAN_ANOMALY": 220.3103, "EPHEMERIS_TYPE": 0, "CLASSIFICATION_TYPE": "U", "NORAD_CAT_ID": 30740, "ELEMENT_SET_NO": 999, "REV_AT_EPOCH": 97626, "BSTAR": 0.0053662776, "MEAN_MOTION_DOT": 0.00021785, "MEAN_MOTION_DDOT": 0}, "tle": {"line1": "1 30740U 99025ATA 25345.26202045  .00021785  00000+0  53663-2 0  9996", "line2": "2 30740  98.6893  90.3143 0032154 140.0466 220.3103 14.51876132976264"}}, "geometry": {"type": "Point", "coordinates": [111.95617779752233, -67.10246081698317]}}]}